{
    "links": {
        "self": "http://www.neowsapp.com/rest/v1/neo/3827315?api_key=iIulBulltgU6a56xZRHN4H3l9WmuAYTsLGpBGhQ2"
    },
    "id": "3827315",
    "neo_reference_id": "3827315",
    "name": "(2018 RV1)",
    "designation": "2018 RV1",
    "nasa_jpl_url": "http://ssd.jpl.nasa.gov/sbdb.cgi?sstr=3827315",
    "absolute_magnitude_h": 24.2,
    "estimated_diameter": {
        "kilometers": {
            "estimated_diameter_min": 0.0384197891,
            "estimated_diameter_max": 0.0859092601
        },
        "meters": {
            "estimated_diameter_min": 38.4197891064,
            "estimated_diameter_max": 85.9092601232
        },
        "miles": {
            "estimated_diameter_min": 0.0238729428,
            "estimated_diameter_max": 0.0533815229
        },
        "feet": {
            "estimated_diameter_min": 126.0491808919,
            "estimated_diameter_max": 281.8545369825
        }
    },
    "is_potentially_hazardous_asteroid": false,
    "close_approach_data": [
        {
            "close_approach_date": "2018-08-25",
            "close_approach_date_full": "2018-Aug-25 16:11",
            "epoch_date_close_approach": 1535213460000,
            "relative_velocity": {
                "kilometers_per_second": "6.3298007901",
                "kilometers_per_hour": "22787.2828444128",
                "miles_per_hour": "14159.1313874075"
            },
            "miss_distance": {
                "astronomical": "0.0922063096",
                "lunar": "35.8682544344",
                "kilometers": "13793867.516720552",
                "miles": "8571111.8271535376"
            },
            "orbiting_body": "Earth"
        }
    ],
    "orbital_data": {
        "orbit_id": "9",
        "orbit_determination_date": "2018-10-07 06:47:02",
        "first_observation_date": "2018-09-06",
        "last_observation_date": "2018-10-06",
        "data_arc_in_days": 30,
        "observations_used": 48,
        "orbit_uncertainty": "7",
        "minimum_orbit_intersection": ".0919511",
        "jupiter_tisserand_invariant": "3.487",
        "epoch_osculation": "2459000.5",
        "eccentricity": ".5026571279830897",
        "semi_major_axis": "2.195997452077974",
        "inclination": "5.760397547341229",
        "ascending_node_longitude": "173.9583593431528",
        "orbital_period": "1188.6285971021",
        "perihelion_distance": "1.092163679758277",
        "perihelion_argument": "153.5418335632395",
        "aphelion_distance": "3.299831224397671",
        "perihelion_time": "2459540.494877918278",
        "mean_anomaly": "196.4517255225674",
        "mean_motion": ".3028700477825344",
        "equinox": "J2000",
        "orbit_class": {
            "orbit_class_type": "AMO",
            "orbit_class_description": "Near-Earth asteroid orbits similar to that of 1221 Amor",
            "orbit_class_range": "1.017 AU < q (perihelion) < 1.3 AU"
        }
    },
    "is_sentry_object": false
}